QIANFAN-117             
1 68644U 26075J   26198.89544232  .00000020  00000+0  12226-4 0  9999
2 68644  88.9914 317.8617 0002184 110.9634 249.1751 13.51012621 13950
QIANFAN-118             
1 68645U 26075K   26198.92836697  .00000083  00000+0  10918-3 0  9997
2 68645  88.9919 317.8679 0001970 102.4298 257.7073 13.51014615 13955
QIANFAN-119             
1 68646U 26075L   26198.90371454  .00000080  00000+0  10549-3 0  9998
2 68646  88.9919 317.8660 0002291 112.2112 247.9282 13.51020890 13952
QIANFAN-120             
1 68647U 26075M   26198.91617011  .00000095  00000+0  12915-3 0  9997
2 68647  88.9921 317.8503 0002444 111.9668 248.1743 13.51021381 13966
QIANFAN-121             
1 68648U 26075N   26198.86668301  .00000078  00000+0  10237-3 0  9996
2 68648  88.9918 317.8596 0002046 102.8211 257.3169 13.51013423 13957
QIANFAN-122             
1 68649U 26075P   26198.93262929  .00000081  00000+0  10659-3 0  9993
2 68649  88.9917 317.8507 0002214 112.6395 247.4990 13.51017124 13952
QIANFAN-123             
1 68650U 26075Q   26198.89975686  .00000086  00000+0  11451-3 0  9997
2 68650  88.9914 317.8430 0002340 117.4307 242.7083 13.51015518 13936
QIANFAN-124             
1 68651U 26075R   26198.92440684  .00000100  00000+0  13605-3 0  9997
2 68651  88.9917 317.8503 0002232 114.5760 245.5624 13.51016767 13964
QIANFAN-125             
1 68652U 26075S   26198.86257490  .00000072  00000+0  92572-4 0  9991
2 68652  88.9916 317.8587 0002017 103.2520 256.8856 13.51013629 13951
QIANFAN-126             
1 68653U 26075T   26198.87087145  .00000084  00000+0  11151-3 0  9997
2 68653  88.9921 317.8247 0002354 116.8353 243.3039 13.51018709 13979
HULIANWANG DIGUI-164    
1 68656U 26076A   26198.95035525  .00000026  00000+0  25332-4 0  9998
2 68656  86.4946  33.4872 0001986  78.5785 281.5572 13.24410641 13449
HULIANWANG DIGUI-165    
1 68657U 26076B   26198.94280774 -.00000007  00000+0 -49902-4 0  9996
2 68657  86.4965  33.5071 0002134  83.7414 276.3963 13.24413295 13440
HULIANWANG DIGUI-166    
1 68658U 26076C   26198.93531726 -.00000003  00000+0 -41039-4 0  9991
2 68658  86.4906  33.4395 0002105  83.8268 276.3106 13.24411370 13441
HULIANWANG DIGUI-167    
1 68659U 26076D   26198.92769285 -.00000006  00000+0 -47403-4 0  9998
2 68659  86.4960  33.4967 0002097  83.8906 276.2467 13.24413456 13442
HULIANWANG DIGUI-168    
1 68660U 26076E   26198.92014508 -.00000009  00000+0 -55435-4 0  9998
2 68660  86.4942  33.4720 0002132  83.8798 276.2579 13.24411615 13438
STARLINK-37195          
1 68662U 26077A   26198.08356128  .00009885  00000+0  30801-3 0  9993
2 68662  97.2857  68.8398 0001450  97.1633 262.9775 15.33456368 14983
STARLINK-37222          
1 68663U 26077B   26198.07810132  .00007251  00000+0  22660-3 0  9992
2 68663  97.2824  68.8496 0001520  78.6114 281.5300 15.33459924 14985
STARLINK-37153          
1 68664U 26077C   26198.08083750  .00011318  00000+0  35233-3 0  9991
2 68664  97.2854  68.8449 0001667  97.7281 262.4151 15.33447998 14986
STARLINK-37171          
1 68665U 26077D   26198.07539867  .00008563  00000+0  26726-3 0  9991
2 68665  97.2849  68.8502 0001444  98.4984 261.6423 15.33444805 14989
STARLINK-37109          
1 68666U 26077E   26198.39895938  .00007784  00000+0  24320-3 0  9993
2 68666  97.2857  69.1776 0002180  95.4772 264.6719 15.33441444 15030
STARLINK-36295          
1 68667U 26077F   26198.59200701  .00007888  00000+0  24649-3 0  9993
2 68667  97.2847  69.3740 0002291  80.9360 279.2142 15.33431930 15062
STARLINK-37221          
1 68668U 26077G   26198.63551248  .00008877  00000+0  27679-3 0  9999
2 68668  97.2849  69.4659 0001755  93.2220 266.9223 15.33466394 15077
STARLINK-37302          
1 68669U 26077H   26198.06452254  .00008508  00000+0  26549-3 0  9990
2 68669  97.2860  68.8683 0001382  88.4571 271.6830 15.33452396 14985
STARLINK-37298          
1 68670U 26077J   26198.06724685  .00009363  00000+0  29209-3 0  9998
2 68670  97.2845  68.8637 0001756  92.9706 267.1738 15.33431737 14987
STARLINK-37224          
1 68671U 26077K   26198.58384676  .00010417  00000+0  32450-3 0  9992
2 68671  97.2854  69.3841 0002384 108.7732 251.3770 15.33449899 15063
STARLINK-37296          
1 68672U 26077L   26198.38537095  .00000556  00000+0  19557-4 0  9993
2 68672  97.2847  69.1932 0001537 126.0825 234.0561 15.33425433 15031
STARLINK-37316          
1 68673U 26077M   26198.05636532  .00008396  00000+0  26201-3 0  9997
2 68673  97.2854  68.8779 0001268  81.5055 278.6331 15.33455784 14980
STARLINK-36672          
1 68674U 26077N   26198.37992453  .00008948  00000+0  27932-3 0  9995
2 68674  97.2846  69.2006 0001413  86.4306 273.7098 15.33427291 15030
STARLINK-36669          
1 68675U 26077P   26198.11618699  .00005294  00000+0  16619-3 0  9996
2 68675  97.2848  68.9497 0002018 103.2137 256.9331 15.33443745 14994
STARLINK-37312          
1 68676U 26077Q   26198.10258486  .00010467  00000+0  32607-3 0  9993
2 68676  97.2842  68.9680 0001027 117.6973 242.4374 15.33448119 14996
