OBJECT_NAME,OBJECT_ID,EPOCH,MEAN_MOTION,ECCENTRICITY,INCLINATION,RA_OF_ASC_NODE,ARG_OF_PERICENTER,MEAN_ANOMALY,EPHEMERIS_TYPE,CLASSIFICATION_TYPE,NORAD_CAT_ID,ELEMENT_SET_NO,REV_AT_EPOCH,BSTAR,MEAN_MOTION_DOT,MEAN_MOTION_DDOT
QIANFAN-117,2026-075J,2026-07-17T21:29:26.216448,13.51012621,.00021844,88.9914,317.8617,110.9634,249.1751,0,U,68644,999,1395,.12225535E-4,.2E-6,0
QIANFAN-118,2026-075K,2026-07-17T22:16:50.906208,13.51014615,.00019708,88.9919,317.8679,102.4298,257.7073,0,U,68645,999,1395,.10917852E-3,.83E-6,0
QIANFAN-119,2026-075L,2026-07-17T21:41:20.936256,13.51020890,.00022911,88.9919,317.8660,112.2112,247.9282,0,U,68646,999,1395,.10549357E-3,.8E-6,0
QIANFAN-120,2026-075M,2026-07-17T21:59:17.097504,13.51021381,.00024448,88.9921,317.8503,111.9668,248.1743,0,U,68647,999,1396,.1291535E-3,.95E-6,0
QIANFAN-121,2026-075N,2026-07-17T20:48:01.412064,13.51013423,.00020467,88.9918,317.8596,102.8211,257.3169,0,U,68648,999,1395,.10236899E-3,.78E-6,0
QIANFAN-122,2026-075P,2026-07-17T22:22:59.170656,13.51017124,.00022146,88.9917,317.8507,112.6395,247.4990,0,U,68649,999,1395,.10658607E-3,.81E-6,0
QIANFAN-123,2026-075Q,2026-07-17T21:35:38.992704,13.51015518,.00023406,88.9914,317.8430,117.4307,242.7083,0,U,68650,999,1393,.11451085E-3,.86E-6,0
QIANFAN-124,2026-075R,2026-07-17T22:11:08.750976,13.51016767,.00022326,88.9917,317.8503,114.5760,245.5624,0,U,68651,999,1396,.13604726E-3,.1E-5,0
QIANFAN-125,2026-075S,2026-07-17T20:42:06.471360,13.51013629,.00020172,88.9916,317.8587,103.2520,256.8856,0,U,68652,999,1395,.9257201E-4,.72E-6,0
QIANFAN-126,2026-075T,2026-07-17T20:54:03.293280,13.51018709,.00023547,88.9921,317.8247,116.8353,243.3039,0,U,68653,999,1397,.11150833E-3,.84E-6,0
HULIANWANG DIGUI-164,2026-076A,2026-07-17T22:48:30.693600,13.24410641,.00019869,86.4946,33.4872,78.5785,281.5572,0,U,68656,999,1344,.25332185E-4,.26E-6,0
HULIANWANG DIGUI-165,2026-076B,2026-07-17T22:37:38.588736,13.24413295,.00021343,86.4965,33.5071,83.7414,276.3963,0,U,68657,999,1344,-.49901952E-4,-.7E-7,0
HULIANWANG DIGUI-166,2026-076C,2026-07-17T22:26:51.411264,13.24411370,.00021059,86.4906,33.4395,83.8268,276.3106,0,U,68658,999,1344,-.41039399E-4,-.3E-7,0
HULIANWANG DIGUI-167,2026-076D,2026-07-17T22:15:52.662240,13.24413456,.00020976,86.4960,33.4967,83.8906,276.2467,0,U,68659,999,1344,-.47403271E-4,-.6E-7,0
HULIANWANG DIGUI-168,2026-076E,2026-07-17T22:05:00.534912,13.24411615,.00021326,86.4942,33.4720,83.8798,276.2579,0,U,68660,999,1343,-.55434765E-4,-.9E-7,0
STARLINK-37195,2026-077A,2026-07-17T02:00:19.694592,15.33456368,.000145,97.2857,68.8398,97.1633,262.9775,0,U,68662,999,1498,.30801E-3,.9885E-4,0
STARLINK-37222,2026-077B,2026-07-17T01:52:27.954048,15.33459924,.00015203,97.2824,68.8496,78.6114,281.5300,0,U,68663,999,1498,.22659575E-3,.7251E-4,0
STARLINK-37153,2026-077C,2026-07-17T01:56:24.360000,15.33447998,.00016672,97.2854,68.8449,97.7281,262.4151,0,U,68664,999,1498,.35233006E-3,.11318E-3,0
STARLINK-37171,2026-077D,2026-07-17T01:48:34.445088,15.33444805,.0001444,97.2849,68.8502,98.4984,261.6423,0,U,68665,999,1498,.26726053E-3,.8563E-4,0
STARLINK-37109,2026-077E,2026-07-17T09:34:30.090432,15.33441444,.000218,97.2857,69.1776,95.4772,264.6719,0,U,68666,999,1503,.2432E-3,.7784E-4,0
STARLINK-36295,2026-077F,2026-07-17T14:12:29.405664,15.33431930,.0002291,97.2847,69.3740,80.9360,279.2142,0,U,68667,999,1506,.24649E-3,.7888E-4,0
STARLINK-37221,2026-077G,2026-07-17T15:15:08.278272,15.33466394,.0001755,97.2849,69.4659,93.2220,266.9223,0,U,68668,999,1507,.27679E-3,.8877E-4,0
STARLINK-37302,2026-077H,2026-07-17T01:32:54.747456,15.33452396,.00013827,97.2860,68.8683,88.4571,271.6830,0,U,68669,999,1498,.26548751E-3,.8508E-4,0
STARLINK-37298,2026-077J,2026-07-17T01:36:50.127840,15.33431737,.0001756,97.2845,68.8637,92.9706,267.1738,0,U,68670,999,1498,.29209126E-3,.9363E-4,0
STARLINK-37224,2026-077K,2026-07-17T14:00:44.360064,15.33449899,.0002384,97.2854,69.3841,108.7732,251.3770,0,U,68671,999,1506,.3245E-3,.10417E-3,0
STARLINK-37296,2026-077L,2026-07-17T09:14:56.050080,15.33425433,.0001537,97.2847,69.1932,126.0825,234.0561,0,U,68672,999,1503,.19557E-4,.556E-5,0
STARLINK-37316,2026-077M,2026-07-17T01:21:09.963648,15.33455784,.00012685,97.2854,68.8779,81.5055,278.6331,0,U,68673,999,1498,.26200948E-3,.8396E-4,0
STARLINK-36672,2026-077N,2026-07-17T09:07:05.479392,15.33427291,.0001413,97.2846,69.2006,86.4306,273.7098,0,U,68674,999,1503,.27932E-3,.8948E-4,0
STARLINK-36669,2026-077P,2026-07-17T02:47:18.555936,15.33443745,.00020185,97.2848,68.9497,103.2137,256.9331,0,U,68675,999,1499,.16618852E-3,.5294E-4,0
STARLINK-37312,2026-077Q,2026-07-17T02:27:43.331904,15.33448119,.00010279,97.2842,68.9680,117.6973,242.4374,0,U,68676,999,1499,.32607427E-3,.10467E-3,0
